STARLINK-36699          
1 67652U 26022E   26045.58335647 -.01912949  00000+0 -11637-1 0  9991
2 67652  97.2820  78.4132 0001714 109.5791 156.2936 15.80437609  3172
STARLINK-36694          
1 67653U 26022F   26045.58335647 -.01462388  00000+0 -84497-2 0  9994
2 67653  97.2824  78.4164 0001615 118.4281 154.0211 15.81234775  3177
STARLINK-36620          
1 67654U 26022G   26045.58335647 -.01954707  00000+0 -11722-1 0  9996
2 67654  97.2816  78.4181 0001808  88.7107 189.5303 15.80816856  3178
STARLINK-36720          
1 67655U 26022H   26045.58335647 -.01575373  00000+0 -92020-2 0  9996
2 67655  97.2823  78.4215 0001175 105.7489 179.2233 15.81222323  3174
STARLINK-36688          
1 67656U 26022J   26045.58335647 -.01783321  00000+0 -10382-1 0  9991
2 67656  97.2820  78.4228 0002070 100.1242 189.8002 15.81167432  3177
STARLINK-36706          
1 67657U 26022K   26045.58335647 -.01232094  00000+0 -71080-2 0  9991
2 67657  97.2807  78.4246 0000294  71.4437 224.1344 15.81257891  3143
STARLINK-36701          
1 67658U 26022L   26045.58335647 -.01317436  00000+0 -76758-2 0  9993
2 67658  97.2810  78.4281 0001334  93.3264 208.7052 15.81225755  3175
STARLINK-36642          
1 67659U 26022M   26045.58335647 -.00917058  00000+0 -52329-2 0  9997
2 67659  97.2809  78.4302 0000613 101.7885 204.8891 15.81155308  3174
STARLINK-36673          
1 67660U 26022N   26045.58335647 -.00428709  00000+0 -23309-2 0  9995
2 67660  97.2804  78.4320 0000775 112.3957 200.7360 15.80987447  3170
STARLINK-36674          
1 67661U 26022P   26045.58335647  .00008352  00000+0  44273-4 0  9997
2 67661  97.2807  78.4345 0001278 100.1528 217.7474 15.80830946  3174
STARLINK-36700          
1 67662U 26022Q   26045.58335647  .00050774  00000+0  26453-3 0  9992
2 67662  97.2803  78.4392 0001258  99.7686 230.4532 15.80794903  3178
STARLINK-36675          
1 67663U 26022R   26045.58335647  .00004160  00000+0  22448-4 0  9992
2 67663  97.2804  78.4366 0001544  67.2010 256.8633 15.80814665  3172
