CCSDS_OMM_VERS = 2.0
CREATION_DATE  = 
ORIGINATOR     = 

OBJECT_NAME    = STARLINK-36699
OBJECT_ID      = 2026-022E
CENTER_NAME    = EARTH
REF_FRAME      = TEME
TIME_SYSTEM    = UTC
MEAN_ELEMENT_THEORY = SGP/SGP4

EPOCH          = 2026-02-14T14:00:01.999008
MEAN_MOTION    = 15.80437609
ECCENTRICITY   = .0001714
INCLINATION    = 97.2820
RA_OF_ASC_NODE = 78.4132
ARG_OF_PERICENTER = 109.5791
MEAN_ANOMALY   = 156.2936

EPHEMERIS_TYPE = 0
CLASSIFICATION_TYPE = U
NORAD_CAT_ID   = 67652
ELEMENT_SET_NO = 999
REV_AT_EPOCH   = 317
BSTAR          = -.11637E-1
MEAN_MOTION_DOT = -.1912949E-1
MEAN_MOTION_DDOT = 0

CCSDS_OMM_VERS = 2.0
CREATION_DATE  = 
ORIGINATOR     = 

OBJECT_NAME    = STARLINK-36694
OBJECT_ID      = 2026-022F
CENTER_NAME    = EARTH
REF_FRAME      = TEME
TIME_SYSTEM    = UTC
MEAN_ELEMENT_THEORY = SGP/SGP4

EPOCH          = 2026-02-14T14:00:01.999008
MEAN_MOTION    = 15.81234775
ECCENTRICITY   = .0001615
INCLINATION    = 97.2824
RA_OF_ASC_NODE = 78.4164
ARG_OF_PERICENTER = 118.4281
MEAN_ANOMALY   = 154.0211

EPHEMERIS_TYPE = 0
CLASSIFICATION_TYPE = U
NORAD_CAT_ID   = 67653
ELEMENT_SET_NO = 999
REV_AT_EPOCH   = 317
BSTAR          = -.84497E-2
MEAN_MOTION_DOT = -.1462388E-1
MEAN_MOTION_DDOT = 0

CCSDS_OMM_VERS = 2.0
CREATION_DATE  = 
ORIGINATOR     = 

OBJECT_NAME    = STARLINK-36620
OBJECT_ID      = 2026-022G
CENTER_NAME    = EARTH
REF_FRAME      = TEME
TIME_SYSTEM    = UTC
MEAN_ELEMENT_THEORY = SGP/SGP4

EPOCH          = 2026-02-14T14:00:01.999008
MEAN_MOTION    = 15.80816856
ECCENTRICITY   = .0001808
INCLINATION    = 97.2816
RA_OF_ASC_NODE = 78.4181
ARG_OF_PERICENTER = 88.7107
MEAN_ANOMALY   = 189.5303

EPHEMERIS_TYPE = 0
CLASSIFICATION_TYPE = U
NORAD_CAT_ID   = 67654
ELEMENT_SET_NO = 999
REV_AT_EPOCH   = 317
BSTAR          = -.11722E-1
MEAN_MOTION_DOT = -.1954707E-1
MEAN_MOTION_DDOT = 0

CCSDS_OMM_VERS = 2.0
CREATION_DATE  = 
ORIGINATOR     = 

OBJECT_NAME    = STARLINK-36720
OBJECT_ID      = 2026-022H
CENTER_NAME    = EARTH
REF_FRAME      = TEME
TIME_SYSTEM    = UTC
MEAN_ELEMENT_THEORY = SGP/SGP4

EPOCH          = 2026-02-14T14:00:01.999008
MEAN_MOTION    = 15.81222323
ECCENTRICITY   = .0001175
INCLINATION    = 97.2823
RA_OF_ASC_NODE = 78.4215
ARG_OF_PERICENTER = 105.7489
MEAN_ANOMALY   = 179.2233

EPHEMERIS_TYPE = 0
CLASSIFICATION_TYPE = U
NORAD_CAT_ID   = 67655
ELEMENT_SET_NO = 999
REV_AT_EPOCH   = 317
BSTAR          = -.9202E-2
MEAN_MOTION_DOT = -.1575373E-1
MEAN_MOTION_DDOT = 0

CCSDS_OMM_VERS = 2.0
CREATION_DATE  = 
ORIGINATOR     = 

OBJECT_NAME    = STARLINK-36688
OBJECT_ID      = 2026-022J
CENTER_NAME    = EARTH
REF_FRAME      = TEME
TIME_SYSTEM    = UTC
MEAN_ELEMENT_THEORY = SGP/SGP4

EPOCH          = 2026-02-14T14:00:01.999008
MEAN_MOTION    = 15.81167432
ECCENTRICITY   = .000207
INCLINATION    = 97.2820
RA_OF_ASC_NODE = 78.4228
ARG_OF_PERICENTER = 100.1242
MEAN_ANOMALY   = 189.8002

EPHEMERIS_TYPE = 0
CLASSIFICATION_TYPE = U
NORAD_CAT_ID   = 67656
ELEMENT_SET_NO = 999
REV_AT_EPOCH   = 317
BSTAR          = -.10382E-1
MEAN_MOTION_DOT = -.1783321E-1
MEAN_MOTION_DDOT = 0

CCSDS_OMM_VERS = 2.0
CREATION_DATE  = 
ORIGINATOR     = 

OBJECT_NAME    = STARLINK-36706
OBJECT_ID      = 2026-022K
CENTER_NAME    = EARTH
REF_FRAME      = TEME
TIME_SYSTEM    = UTC
MEAN_ELEMENT_THEORY = SGP/SGP4

EPOCH          = 2026-02-14T14:00:01.999008
MEAN_MOTION    = 15.81257891
ECCENTRICITY   = .0000294
INCLINATION    = 97.2807
RA_OF_ASC_NODE = 78.4246
ARG_OF_PERICENTER = 71.4437
MEAN_ANOMALY   = 224.1344

EPHEMERIS_TYPE = 0
CLASSIFICATION_TYPE = U
NORAD_CAT_ID   = 67657
ELEMENT_SET_NO = 999
REV_AT_EPOCH   = 314
BSTAR          = -.7108E-2
MEAN_MOTION_DOT = -.1232094E-1
MEAN_MOTION_DDOT = 0

CCSDS_OMM_VERS = 2.0
CREATION_DATE  = 
ORIGINATOR     = 

OBJECT_NAME    = STARLINK-36701
OBJECT_ID      = 2026-022L
CENTER_NAME    = EARTH
REF_FRAME      = TEME
TIME_SYSTEM    = UTC
MEAN_ELEMENT_THEORY = SGP/SGP4

EPOCH          = 2026-02-14T14:00:01.999008
MEAN_MOTION    = 15.81225755
ECCENTRICITY   = .0001334
INCLINATION    = 97.2810
RA_OF_ASC_NODE = 78.4281
ARG_OF_PERICENTER = 93.3264
MEAN_ANOMALY   = 208.7052

EPHEMERIS_TYPE = 0
CLASSIFICATION_TYPE = U
NORAD_CAT_ID   = 67658
ELEMENT_SET_NO = 999
REV_AT_EPOCH   = 317
BSTAR          = -.76758E-2
MEAN_MOTION_DOT = -.1317436E-1
MEAN_MOTION_DDOT = 0

CCSDS_OMM_VERS = 2.0
CREATION_DATE  = 
ORIGINATOR     = 

OBJECT_NAME    = STARLINK-36642
OBJECT_ID      = 2026-022M
CENTER_NAME    = EARTH
REF_FRAME      = TEME
TIME_SYSTEM    = UTC
MEAN_ELEMENT_THEORY = SGP/SGP4

EPOCH          = 2026-02-14T14:00:01.999008
MEAN_MOTION    = 15.81155308
ECCENTRICITY   = .0000613
INCLINATION    = 97.2809
RA_OF_ASC_NODE = 78.4302
ARG_OF_PERICENTER = 101.7885
MEAN_ANOMALY   = 204.8891

EPHEMERIS_TYPE = 0
CLASSIFICATION_TYPE = U
NORAD_CAT_ID   = 67659
ELEMENT_SET_NO = 999
REV_AT_EPOCH   = 317
BSTAR          = -.52329E-2
MEAN_MOTION_DOT = -.917058E-2
MEAN_MOTION_DDOT = 0

CCSDS_OMM_VERS = 2.0
CREATION_DATE  = 
ORIGINATOR     = 

OBJECT_NAME    = STARLINK-36673
OBJECT_ID      = 2026-022N
CENTER_NAME    = EARTH
REF_FRAME      = TEME
TIME_SYSTEM    = UTC
MEAN_ELEMENT_THEORY = SGP/SGP4

EPOCH          = 2026-02-14T14:00:01.999008
MEAN_MOTION    = 15.80987447
ECCENTRICITY   = .0000775
INCLINATION    = 97.2804
RA_OF_ASC_NODE = 78.4320
ARG_OF_PERICENTER = 112.3957
MEAN_ANOMALY   = 200.7360

EPHEMERIS_TYPE = 0
CLASSIFICATION_TYPE = U
NORAD_CAT_ID   = 67660
ELEMENT_SET_NO = 999
REV_AT_EPOCH   = 317
BSTAR          = -.23309E-2
MEAN_MOTION_DOT = -.428709E-2
MEAN_MOTION_DDOT = 0

CCSDS_OMM_VERS = 2.0
CREATION_DATE  = 
ORIGINATOR     = 

OBJECT_NAME    = STARLINK-36674
OBJECT_ID      = 2026-022P
CENTER_NAME    = EARTH
REF_FRAME      = TEME
TIME_SYSTEM    = UTC
MEAN_ELEMENT_THEORY = SGP/SGP4

EPOCH          = 2026-02-14T14:00:01.999008
MEAN_MOTION    = 15.80830946
ECCENTRICITY   = .0001278
INCLINATION    = 97.2807
RA_OF_ASC_NODE = 78.4345
ARG_OF_PERICENTER = 100.1528
MEAN_ANOMALY   = 217.7474

EPHEMERIS_TYPE = 0
CLASSIFICATION_TYPE = U
NORAD_CAT_ID   = 67661
ELEMENT_SET_NO = 999
REV_AT_EPOCH   = 317
BSTAR          = .44273E-4
MEAN_MOTION_DOT = .8352E-4
MEAN_MOTION_DDOT = 0

CCSDS_OMM_VERS = 2.0
CREATION_DATE  = 
ORIGINATOR     = 

OBJECT_NAME    = STARLINK-36700
OBJECT_ID      = 2026-022Q
CENTER_NAME    = EARTH
REF_FRAME      = TEME
TIME_SYSTEM    = UTC
MEAN_ELEMENT_THEORY = SGP/SGP4

EPOCH          = 2026-02-14T14:00:01.999008
MEAN_MOTION    = 15.80794903
ECCENTRICITY   = .0001258
INCLINATION    = 97.2803
RA_OF_ASC_NODE = 78.4392
ARG_OF_PERICENTER = 99.7686
MEAN_ANOMALY   = 230.4532

EPHEMERIS_TYPE = 0
CLASSIFICATION_TYPE = U
NORAD_CAT_ID   = 67662
ELEMENT_SET_NO = 999
REV_AT_EPOCH   = 317
BSTAR          = .26453E-3
MEAN_MOTION_DOT = .50774E-3
MEAN_MOTION_DDOT = 0

CCSDS_OMM_VERS = 2.0
CREATION_DATE  = 
ORIGINATOR     = 

OBJECT_NAME    = STARLINK-36675
OBJECT_ID      = 2026-022R
CENTER_NAME    = EARTH
REF_FRAME      = TEME
TIME_SYSTEM    = UTC
MEAN_ELEMENT_THEORY = SGP/SGP4

EPOCH          = 2026-02-14T14:00:01.999008
MEAN_MOTION    = 15.80814665
ECCENTRICITY   = .0001544
INCLINATION    = 97.2804
RA_OF_ASC_NODE = 78.4366
ARG_OF_PERICENTER = 67.2010
MEAN_ANOMALY   = 256.8633

EPHEMERIS_TYPE = 0
CLASSIFICATION_TYPE = U
NORAD_CAT_ID   = 67663
ELEMENT_SET_NO = 999
REV_AT_EPOCH   = 317
BSTAR          = .22448E-4
MEAN_MOTION_DOT = .416E-4
MEAN_MOTION_DDOT = 0

